ASIASAT 9               
1 42942U 17057A   19365.31229019 -.00000355  00000-0  00000+0 0  9995
2 42942   0.0027  22.1733 0002180 245.2233  66.5675  1.00270566  8271
INTELSAT 37E (IS-37E)   
1 42950U 17059A   20001.43289146 -.00000134  00000-0  00000+0 0  9990
2 42950   0.0147  26.7508 0002859 239.1382 332.5051  1.00268912  8404
BSAT-4A                 
1 42951U 17059B   20001.45836438 -.00000343  00000-0  00000+0 0  9997
2 42951   0.0458 346.3686 0002107  17.6578  11.3974  1.00275576  8309
QZS-4 (MICHIBIKI-4)     
1 42965U 17062A   20001.36716064 -.00000337  00000-0  00000+0 0  9991
2 42965  40.7985  13.8148 0750027 271.7551  82.8832  1.00250452  8160
SES-11 (ECHOSTAR 105)   
1 42967U 17063A   20001.43939253 -.00000081  00000-0  00000+0 0  9995
2 42967   0.0161  37.8030 0002628 246.3695 229.6100  1.00269924  8159
KOREASAT 5A             
1 42984U 17067A   19365.84437727 -.00000352  00000-0  00000+0 0  9994
2 42984   0.0297  98.8464 0001834 119.4024 298.8444  1.00271820  7976
ALCOMSAT 1              
1 43039U 17078A   19365.85725409 -.00000180  00000-0  00000-0 0  9996
2 43039   0.0222  80.8512 0002401 188.0544 114.9013  1.00272545  7639
SBIRS GEO-3 (USA 282)   
1 43162U 18009A   19365.84527913 -.00000284  00000-0  00000-0 0  9992
2 43162   5.2757 317.6004 0001839 311.0012 274.6734  1.00271988  7189
AL YAH 3                
1 43174U 18012A   20001.43245528 -.00000148  00000-0  00000+0 0  9990
2 43174   0.0191  18.3414 0002067 266.2924 311.4874  1.00268038  7192
SES-14                  
1 43175U 18012B   19365.85271781 -.00000272  00000-0  00000-0 0  9997
2 43175   0.0134   3.4620 0000904 269.8386  86.1434  1.00270585  7416
GOES 17                 
1 43226U 18022A   20001.52725027  .00000105  00000-0  00000+0 0  9998
2 43226   0.0471 116.8066 0000276 157.8878 238.5342  1.00271227  6788
HISPASAT 30W-6          
1 43228U 18023A   20001.07155638 -.00000210  00000-0  00000+0 0  9994
2 43228   0.0412  46.7156 0002484 272.0405 137.2057  1.00270949  6840
SUPERBIRD 8             
1 43271U 18033A   19365.83515204 -.00000087  00000-0  00000+0 0  9999
2 43271   0.0190 104.1957 0001021 165.9764 292.4327  1.00270908  6392
HYLAS 4                 
1 43272U 18033B   19365.85550937 -.00000227  00000-0  00000-0 0  9991
2 43272   0.0714 118.3719 0002838  80.0265 176.0756  1.00270841  6421
IRNSS-1I                
1 43286U 18035A   19365.88090786  .00000103  00000-0  00000-0 0  9994
2 43286  28.8314 112.2824 0021815 184.6179 175.2340  1.00272622  6420
USA 283                 
1 43339U 18036A   19364.55058238 -.00000314  00000-0  00000+0 0  9997
2 43339   0.0246  16.4080 0000578 340.6918  73.8832  1.00271447  1644
COSMOS 2526             
1 43432U 18037A   20001.46202830 -.00000337  00000-0  00000+0 0  9996
2 43432   0.0270  85.1638 0001894 201.5543 108.2414  1.00273337  6327
APSTAR 6C               
1 43450U 18041A   19365.88892080 -.00000312  00000-0  00000-0 0  9994
2 43450   0.0405 116.2525 0001068 312.8130 124.9733  1.00272947  6177
BANGABANDHUSAT-1        
1 43463U 18044A   20001.12757800 -.00000356  00000-0  00000+0 0  9994
2 43463   0.0160 333.7647 0001397 300.0956 351.3976  1.00270295  6078
SES-12                  
1 43488U 18049A   20001.45539836 -.00000262  00000-0  00000+0 0  9995
2 43488   0.0241  55.8041 0002588 210.2426  93.4576  1.00271812  5774
FENGYUN 2H              
1 43491U 18050A   20001.52405315 -.00000115  00000-0  00000+0 0  9990
2 43491   1.0533 278.6163 0002099 256.5954 192.9842  1.00267514  5864
BEIDOU IGSO-7           
1 43539U 18057A   19365.83256168 -.00000065  00000-0  00000-0 0  9990
2 43539  55.0375 183.7917 0024873 196.2941 132.8802  1.00268347  5496
TELSTAR 19V             
1 43562U 18059A   20001.42390612 -.00000272  00000-0  00000+0 0  9994
2 43562   0.0154  50.6904 0001858 185.1242 314.3381  1.00268362  5513
TELKOM 4 (MERAH PUTIH)  
1 43587U 18064A   20001.12271630 -.00000337  00000-0  00000+0 0  9994
2 43587   0.0177  44.7943 0000944 251.1918 316.4170  1.00272646  5206
TELSTAR 18V (APSTAR 5C) 
1 43611U 18069A   20001.13452284 -.00000287  00000-0  00000+0 0  9998
2 43611   0.0182  31.1583 0001954 246.8643   8.6466  1.00271715  4953
AZERSPACE 2 (IS-38)     
1 43632U 18074A   20001.09285706  .00000143  00000-0  00000+0 0  9995
2 43632   0.0186  33.0714 0001268 245.8626 259.8321  1.00272751  4844
HORIZONS 3E             
1 43633U 18074B   20001.47022848 -.00000023  00000-0  00000+0 0  9992
2 43633   0.0212 200.5252 0000396  66.3090 172.0199  1.00270234  4703
AEHF-4 (USA 288)        
1 43651U 18079A   19365.64406918  .00000135  00000-0  00000+0 0  9994
2 43651   4.2131 311.2411 0004200 313.9997 276.3584  1.00268687  4627
BEIDOU-3 G1             
1 43683U 18085A   20001.46248782 -.00000235  00000-0  00000+0 0  9990
2 43683   2.1377 262.7324 0000787  40.6978 108.2063  1.00270547  4413
GSAT-29                 
1 43698U 18089A   20001.08856743  .00000092  00000-0  00000+0 0  9990
2 43698   0.0955 100.2208 0003477 174.0496 272.8304  1.00271587  4164
ES'HAIL 2               
1 43700U 18090A   19365.79557816  .00000150  00000-0  00000+0 0  9999
2 43700   0.0174 346.4093 0001805 326.3144  99.4169  1.00274409  4261
GEO-KOMPSAT-2A          
1 43823U 18100A   20001.12757800 -.00000337  00000-0  00000+0 0  9996
2 43823   0.0355 205.3543 0000547 242.0753 186.9620  1.00269124  4007
GSAT-11                 
1 43824U 18100B   20001.45121103 -.00000069  00000-0  00000+0 0  9996
2 43824   0.0660 278.9238 0003817 175.6737 242.3544  1.00272326  3975
GSAT-7A                 
1 43864U 18105A   20001.10327116  .00000033  00000-0  00000+0 0  9999
2 43864   0.0827  89.3932 0002345 174.2101 296.6129  1.00269414  3812
COSMOS 2533             
1 43867U 18107A   20001.48591809 -.00000031  00000-0  00000+0 0  9996
2 43867   0.0408 108.2565 0000261 354.3283 242.9389  1.00272634  3775
TJS-3                   
1 43874U 18110A   19365.84053103  .00000008  00000-0  00000-0 0  9993
2 43874   0.0398 100.4135 0006340 138.0434 337.1188  1.00269832  3766
TJS-3 AKM               
1 43917U 18110C   19365.92373993  .00000064  00000-0  00000-0 0  9994
2 43917   0.5030 275.5509 0003296 344.4028 231.6565  1.00267751  3697
CHINASAT 2D (ZX 2D)     
1 43920U 19001A   19365.94632808 -.00000331  00000-0  00000-0 0  9991
2 43920   0.0403 229.3526 0000825  74.8633 266.5463  1.00272563  3700
HELLAS-SAT 4 & SGS-1    
1 44034U 19007A   20001.01356799  .00000159  00000-0  00000+0 0  9999
2 44034   0.0701 126.6903 0003823  43.9018 333.4336  1.00271176  3714
GSAT-31                 
1 44035U 19007B   20001.48675052 -.00000157  00000-0  00000+0 0  9996
2 44035   0.0131  71.9640 0005674 191.8204  95.0566  1.00271378  3314
NUSANTARA SATU          
1 44048U 19009A   20001.14007992 -.00000228  00000-0  00000+0 0  9996
2 44048   0.0146  42.2437 0001935 230.5050  23.9359  1.00272506  3117
CHINASAT 6C (ZX 6C)     
1 44067U 19012A   20001.58496994 -.00000329  00000-0  99999+0 0  9990
2 44067   0.0748 264.5128 0003308   6.3010 170.4780  1.00269400  3084
WGS 10 (USA 291)        
1 44071U 19014A   20001.47454600  .00000059  00000-0  00000+0 0  9997
2 44071   0.0388  92.5051 0000513  73.0148 285.7064  1.00272097  2968
TIANLIAN 2-01           
1 44076U 19017A   19365.92479887 -.00000129  00000-0  00000-0 0  9990
2 44076   2.4008 288.0707 0029674 213.2855  11.5362  1.00274288  2959
ARABSAT-6A              
1 44186U 19021A   19365.79653775  .00000159  00000-0  00000+0 0  9993
2 44186   0.0528 330.7385 0004557 295.5646 150.9076  1.00266365  2534
BEIDOU-3 IGSO-1         
1 44204U 19023A   19365.45960736 -.00000219  00000-0  10000-3 0  9990
2 44204  55.2541  62.7896 0015523 191.5290 125.1459  1.00288073  2692
BEIDOU-2 G8             
1 44231U 19027A   19365.92479887 -.00000129  00000-0  00000-0 0  9994
2 44231   1.3657 294.6478 0000876  34.9776 183.3238  1.00269952  2436
YAMAL 601               
1 44307U 19031A   19365.80020168  .00000126  00000-0  00000-0 0  9990
2 44307   0.0157  12.6130 0001973 291.1860 133.1924  1.00269215  2273
AT&T T-16               
1 44333U 19034A   20001.41640382 -.00000108  00000-0  00000+0 0  9994
2 44333   0.0175  32.2910 0000631 134.0836 343.1968  1.00271266  2005
EUTELSAT 7C             
1 44334U 19034B   20001.29436054  .00000057  00000-0  00000+0 0  9992
2 44334   0.0178  49.6734 0001351 332.0738 191.8592  1.00271017  2472
BEIDOU-3 IGSO-2         
1 44337U 19035A   19365.82540563 -.00000055  00000-0  00000+0 0  9996
2 44337  55.0544 179.8502 0012115 182.1504 141.4638  1.00289496  2030
COSMOS 2539             
1 44457U 19048A   20001.36711545  .00000088  00000-0  00000+0 0  9996
2 44457   0.0451 138.5887 0000056 243.4483 222.5873  1.00272292  1572
EDRS-C                  
1 44475U 19049A   19365.94020243  .00000160  00000-0  00000-0 0  9992
2 44475   0.0496  80.4562 0000365 160.7291 228.5262  1.00274774  1550
INTELSAT 39 (IS-39)     
1 44476U 19049B   20001.10327116  .00000040  00000-0  00000+0 0  9995
2 44476   0.0190  24.7165 0000196 345.6238 188.9960  1.00271487  1528
AMOS-17                 
1 44479U 19050A   20001.08097788  .00000116  00000-0  00000+0 0  9990
2 44479   0.0205  78.1265 0000591 151.0616 277.1872  1.00275611  1548
AEHF-5 (USA 292)        
1 44481U 19051A   20001.41762513 -.00000151  00000-0  00000+0 0  9996
2 44481   6.3217 309.6667 0003578 323.6863 243.2791  1.00270944  1616
EUTELSAT 5 WEST B       
1 44624U 19067A   19365.00112315  .00000012  00000-0  00000-0 0  9993
2 44624   0.0163  29.7603 0001594 324.0779 107.2357  1.00272490   796
TJS-4                   
1 44637U 19070A   19365.87373795 -.00000164  00000-0  00000+0 0  9995
2 44637   0.0233 101.3411 0001842 188.0216 208.6285  1.00275043   908
BEIDOU-3 IGSO-3         
1 44709U 19073A   19365.71728420 -.00000176  00000-0  00000+0 0  9993
2 44709  58.6441 305.6241 0024592 183.5339 336.1236  1.00281300   794
